{
  "type": "FeatureCollection",
  "features": [
    {
      "type": "Feature",
      "properties": {
        "norad_id": 33913,
        "name": "COSMOS 2251 DEB",
        "group": "cosmos-2251-debris",
        "lat": 68.54672577766486,
        "lon": -56.17392208801027,
        "alt_km": 756.8917756461224,
        "timestamp": "2025-12-19T16:54:44.656110+00:00",
        "meta_object_name": "COSMOS 2251 DEB",
        "meta_object_id": "1993-036DS",
        "meta_epoch": "2025-12-18T22:45:02.855808",
        "meta_mean_motion": 14.48510127,
        "meta_eccentricity": 0.00481485,
        "meta_inclination": 74.0324,
        "meta_ra_of_asc_node": 172.0134,
        "meta_arg_of_pericenter": 273.4672,
        "meta_mean_anomaly": 206.6452,
        "meta_ephemeris_type": 0,
        "meta_classification_type": "U",
        "meta_norad_cat_id": 33913,
        "meta_element_set_no": 999,
        "meta_rev_at_epoch": 88547,
        "meta_bstar": 0.00042635706,
        "meta_mean_motion_dot": 1.595e-05,
        "meta_mean_motion_ddot": 0,
        "tle_line1": "1 33913U 93036DS  25352.94794972  .00001595  00000+0  42636-3 0  9991",
        "tle_line2": "2 33913  74.0324 172.0134 0048148 273.4672 206.6452 14.48510127885475"
      },
      "geometry": {
        "type": "Point",
        "coordinates": [
          -56.17392208801027,
          68.54672577766486
        ]
      }
    },
    {
      "type": "Feature",
      "properties": {
        "norad_id": 33914,
        "name": "COSMOS 2251 DEB",
        "group": "cosmos-2251-debris",
        "lat": -45.196731964403504,
        "lon": -13.071545388186516,
        "alt_km": 1193.9369500472303,
        "timestamp": "2025-12-19T16:54:44.656121+00:00",
        "meta_object_name": "COSMOS 2251 DEB",
        "meta_object_id": "1993-036DT",
        "meta_epoch": "2025-12-19T06:42:42.471072",
        "meta_mean_motion": 13.71988589,
        "meta_eccentricity": 0.03008683,
        "meta_inclination": 74.0911,
        "meta_ra_of_asc_node": 4.3169,
        "meta_arg_of_pericenter": 105.7668,
        "meta_mean_anomaly": 269.9264,
        "meta_ephemeris_type": 0,
        "meta_classification_type": "U",
        "meta_norad_cat_id": 33914,
        "meta_element_set_no": 999,
        "meta_rev_at_epoch": 84171,
        "meta_bstar": 0.0002041457,
        "meta_mean_motion_dot": 2.36e-06,
        "meta_mean_motion_ddot": 0,
        "tle_line1": "1 33914U 93036DT  25353.27965823  .00000236  00000+0  20415-3 0  9996",
        "tle_line2": "2 33914  74.0911   4.3169 0300868 105.7668 269.9264 13.71988589841713"
      },
      "geometry": {
        "type": "Point",
        "coordinates": [
          -13.071545388186516,
          -45.196731964403504
        ]
      }
    },
    {
      "type": "Feature",
      "properties": {
        "norad_id": 33915,
        "name": "COSMOS 2251 DEB",
        "group": "cosmos-2251-debris",
        "lat": -36.101837110008695,
        "lon": -146.61321448076728,
        "alt_km": 800.0695007919512,
        "timestamp": "2025-12-19T16:54:44.656131+00:00",
        "meta_object_name": "COSMOS 2251 DEB",
        "meta_object_id": "1993-036DU",
        "meta_epoch": "2025-12-18T12:02:34.834848",
        "meta_mean_motion": 14.35095885,
        "meta_eccentricity": 0.01041491,
        "meta_inclination": 74.0433,
        "meta_ra_of_asc_node": 23.5471,
        "meta_arg_of_pericenter": 114.5498,
        "meta_mean_anomaly": 9.9412,
        "meta_ephemeris_type": 0,
        "meta_classification_type": "U",
        "meta_norad_cat_id": 33915,
        "meta_element_set_no": 999,
        "meta_rev_at_epoch": 87840,
        "meta_bstar": 0.00027838497,
        "meta_mean_motion_dot": 8.19e-06,
        "meta_mean_motion_ddot": 0,
        "tle_line1": "1 33915U 93036DU  25352.50179207  .00000819  00000+0  27838-3 0  9998",
        "tle_line2": "2 33915  74.0433  23.5471 0104149 114.5498   9.9412 14.35095885878407"
      },
      "geometry": {
        "type": "Point",
        "coordinates": [
          -146.61321448076728,
          -36.101837110008695
        ]
      }
    },
    {
      "type": "Feature",
      "properties": {
        "norad_id": 33916,
        "name": "COSMOS 2251 DEB",
        "group": "cosmos-2251-debris",
        "lat": 45.32102857494545,
        "lon": -167.662537593365,
        "alt_km": 902.0587618460586,
        "timestamp": "2025-12-19T16:54:44.656142+00:00",
        "meta_object_name": "COSMOS 2251 DEB",
        "meta_object_id": "1993-036DV",
        "meta_epoch": "2025-12-19T06:06:50.518368",
        "meta_mean_motion": 13.68620837,
        "meta_eccentricity": 0.03250544,
        "meta_inclination": 74.0523,
        "meta_ra_of_asc_node": 29.8837,
        "meta_arg_of_pericenter": 200.6416,
        "meta_mean_anomaly": 239.0129,
        "meta_ephemeris_type": 0,
        "meta_classification_type": "U",
        "meta_norad_cat_id": 33916,
        "meta_element_set_no": 999,
        "meta_rev_at_epoch": 83980,
        "meta_bstar": 0.00027377242,
        "meta_mean_motion_dot": 3.17e-06,
        "meta_mean_motion_ddot": 0,
        "tle_line1": "1 33916U 93036DV  25353.25475137  .00000317  00000+0  27377-3 0  9994",
        "tle_line2": "2 33916  74.0523  29.8837 0325054 200.6416 239.0129 13.68620837839808"
      },
      "geometry": {
        "type": "Point",
        "coordinates": [
          -167.662537593365,
          45.32102857494545
        ]
      }
    },
    {
      "type": "Feature",
      "properties": {
        "norad_id": 33917,
        "name": "COSMOS 2251 DEB",
        "group": "cosmos-2251-debris",
        "lat": -48.99766912611726,
        "lon": -49.8963820070316,
        "alt_km": 779.31679516236,
        "timestamp": "2025-12-19T16:54:44.656153+00:00",
        "meta_object_name": "COSMOS 2251 DEB",
        "meta_object_id": "1993-036DW",
        "meta_epoch": "2025-12-18T16:59:18.770496",
        "meta_mean_motion": 13.69371042,
        "meta_eccentricity": 0.03313075,
        "meta_inclination": 74.1071,
        "meta_ra_of_asc_node": 112.6077,
        "meta_arg_of_pericenter": 212.2721,
        "meta_mean_anomaly": 145.7744,
        "meta_ephemeris_type": 0,
        "meta_classification_type": "U",
        "meta_norad_cat_id": 33917,
        "meta_element_set_no": 999,
        "meta_rev_at_epoch": 83815,
        "meta_bstar": 0.00062113677,
        "meta_mean_motion_dot": 7.71e-06,
        "meta_mean_motion_ddot": 0,
        "tle_line1": "1 33917U 93036DW  25352.70785614  .00000771  00000+0  62114-3 0  9990",
        "tle_line2": "2 33917  74.1071 112.6077 0331307 212.2721 145.7744 13.69371042838156"
      },
      "geometry": {
        "type": "Point",
        "coordinates": [
          -49.8963820070316,
          -48.99766912611726
        ]
      }
    },
    {
      "type": "Feature",
      "properties": {
        "norad_id": 33920,
        "name": "COSMOS 2251 DEB",
        "group": "cosmos-2251-debris",
        "lat": 20.46956821880235,
        "lon": -68.68545494729592,
        "alt_km": 698.2663387191251,
        "timestamp": "2025-12-19T16:54:44.656164+00:00",
        "meta_object_name": "COSMOS 2251 DEB",
        "meta_object_id": "1993-036DZ",
        "meta_epoch": "2025-12-19T05:17:26.363328",
        "meta_mean_motion": 14.58372646,
        "meta_eccentricity": 0.00379894,
        "meta_inclination": 74.0621,
        "meta_ra_of_asc_node": 286.111,
        "meta_arg_of_pericenter": 291.8205,
        "meta_mean_anomaly": 67.892,
        "meta_ephemeris_type": 0,
        "meta_classification_type": "U",
        "meta_norad_cat_id": 33920,
        "meta_element_set_no": 999,
        "meta_rev_at_epoch": 88209,
        "meta_bstar": 0.0011866275,
        "meta_mean_motion_dot": 5.525e-05,
        "meta_mean_motion_ddot": 0,
        "tle_line1": "1 33920U 93036DZ  25353.22044402  .00005525  00000+0  11866-2 0  9994",
        "tle_line2": "2 33920  74.0621 286.1110 0037989 291.8205  67.8920 14.58372646882096"
      },
      "geometry": {
        "type": "Point",
        "coordinates": [
          -68.68545494729592,
          20.46956821880235
        ]
      }
    },
    {
      "type": "Feature",
      "properties": {
        "norad_id": 33922,
        "name": "COSMOS 2251 DEB",
        "group": "cosmos-2251-debris",
        "lat": -54.35920680140613,
        "lon": 111.19147953356325,
        "alt_km": 725.0901301689646,
        "timestamp": "2025-12-19T16:54:44.656175+00:00",
        "meta_object_name": "COSMOS 2251 DEB",
        "meta_object_id": "1993-036EB",
        "meta_epoch": "2025-12-18T20:20:22.617600",
        "meta_mean_motion": 14.49528312,
        "meta_eccentricity": 0.00231862,
        "meta_inclination": 74.0466,
        "meta_ra_of_asc_node": 136.311,
        "meta_arg_of_pericenter": 246.1835,
        "meta_mean_anomaly": 264.6499,
        "meta_ephemeris_type": 0,
        "meta_classification_type": "U",
        "meta_norad_cat_id": 33922,
        "meta_element_set_no": 999,
        "meta_rev_at_epoch": 88666,
        "meta_bstar": 0.00036559995,
        "meta_mean_motion_dot": 1.379e-05,
        "meta_mean_motion_ddot": 0,
        "tle_line1": "1 33922U 93036EB  25352.84748400  .00001379  00000+0  36560-3 0  9994",
        "tle_line2": "2 33922  74.0466 136.3110 0023186 246.1835 264.6499 14.49528312886665"
      },
      "geometry": {
        "type": "Point",
        "coordinates": [
          111.19147953356325,
          -54.35920680140613
        ]
      }
    }
  ]
}